[
    {
        "Altitude(m)": 622200.0751190943,
        "Argument of Periapsis(deg)": 0.0,
        "Eccentricity": 0.0,
        "Inclination(deg)": 60.0,
        "Latitude(deg)": -52.16244968186053,
        "Longitude(deg)": 102.3607450915618,
        "Mean Anomaly(deg)": -65.45449999999992,
        "RAAN(deg)": 250.00000000000003,
        "Satellite Name": "Test1 1118",
        "Satellite Number": 1118,
        "Semi-Major Axis(m)": 6980739.136638005,
        "Time(s)": 0
    },
    {
        "Altitude(m)": 622058.2427992141,
        "Argument of Periapsis(deg)": 0.00010418945913296404,
        "Eccentricity": 0.0,
        "Inclination(deg)": 60.0,
        "Latitude(deg)": -51.799199414191065,
        "Longitude(deg)": 103.12880157115606,
        "Mean Anomaly(deg)": -64.83439385453808,
        "RAAN(deg)": 249.99957995086027,
        "Satellite Name": "Test1 1118",
        "Satellite Number": 1118,
        "Semi-Major Axis(m)": 6980739.136638005,
        "Time(s)": 10
    }
]